<!DOCTYPE html PUBLIC "-//W3C//DTD XHTML 1.0 Strict//EN" "http://www.w3.org/TR/xhtml1/DTD/xhtml1-strict.dtd">
<html xmlns="http://www.w3.org/1999/xhtml">
<head>
<meta http-equiv="Content-Type" content="text/html; charset=iso-8859-1"/>
<title>404 - File Not Found.</title>
<style type="text/css">
<!--
body{margin:0;font-size:.7em;font-family:Verdana, Arial, Helvetica, sans-serif;background:#EEEEEE;}
fieldset{padding:0 15px 10px 15px;}
h1{font-size:2.4em;margin:0;color:#FFF;}
h2{font-size:1.7em;margin:0;color:#CC0000;}
h3{font-size:1.2em;margin:10px 0 0 0;color:#000000;}
#header{width:96%;margin:0 0 0 0;padding:6px 2% 6px 2%;font-family:"trebuchet MS", Verdana, sans-serif;color:#FFF;
background-color:#555555;}
#content{margin:0 0 0 2%;position:relative;}
.content-container{background:#FFF;width:96%;margin-top:8px;padding:10px;position:relative;}
-->
</style>
</head>
<body>
<div id="header"><h1>Server Error</h1></div>
<div id="content">
 <div class="content-container"><fieldset>
  <h2>404 - File Not Found.</h2>
  <h3>File not found for celestrak.org/NORAD/elements/active.txt.</h3>
  <h3>Please contact <a href="mailto:ts.kelso@celestrak.org">ts.kelso@celestrak.org</a> if you have other questions.</h3>
 </fieldset></div>
</div>
</body>
</html>
BEIDOU-2 G8 (C01)       
1 44231U 19027A   24008.81569196 -.00000224  00000+0  00000+0 0  9999
2 44231   1.5521  72.4516 0004080 176.4170 297.2038  1.00270997 17153
BEIDOU-3 IGSO-2 (C39)   
1 44337U 19035A   24008.86091289 -.00000070  00000+0  00000+0 0  9992
2 44337  55.1666 166.6763 0031228 200.1204 169.1266  1.00291000 16744
BEIDOU-3 M24 (C46)      
1 44542U 19061A   24008.97305375  .00000130  00000+0  00000+0 0  9991
2 44542  54.4643 212.7744 0008757  11.8463 348.2424  1.86231421 29213
BEIDOU-3 M23 (C45)      
1 44543U 19061B   24008.30049351  .00000132  00000+0  00000+0 0  9990
2 44543  54.4626 212.7668 0005556  11.0229 170.1871  1.86231831 29208
BEIDOU-3 IGSO-3 (C40)   
1 44709U 19073A   24008.18511398 -.00000190  00000+0  00000+0 0  9993
2 44709  56.3231 290.4287 0034892 182.7636 177.2512  1.00298683 15522
BEIDOU-3 M22 (C44)      
1 44793U 19078A   24008.28156238 -.00000073  00000+0  00000+0 0  9990
2 44793  54.6782 330.9457 0006523   7.5592 352.4464  1.86231929 28061
BEIDOU-3 M21 (C43)      
1 44794U 19078B   24008.41179622 -.00000073  00000+0  00000+0 0  9998
2 44794  54.6517 330.9207 0004662 356.3207   3.6716  1.86232463 28060
BEIDOU-3 M19 (C41)      
1 44864U 19090A   24008.75743799 -.00000029  00000+0  00000+0 0  9990
2 44864  55.8005  92.4182 0018104 273.9666 151.1814  1.86231513 27651
BEIDOU-3 M20 (C42)      
1 44865U 19090B   24008.52305769 -.00000030  00000+0  00000+0 0  9999
2 44865  55.8022  92.4591 0015609 286.3069  71.4684  1.86231494 27621
BEIDOU-3 G2 (C60)       
1 45344U 20017A   24008.91299396 -.00000118  00000+0  00000+0 0  9991
2 45344   2.1421  22.6550 0002857 251.8562 242.1456  1.00272443 14331
BEIDOU-3 G3 (C61)       
1 45807U 20040A   24008.88052389 -.00000330  00000+0  00000+0 0  9992
2 45807   0.5879  13.2753 0008954 301.0102 221.1621  1.00275233 13146
BEIDOU-3 G4             
1 56564U 23066A   24009.07410527 -.00000082  00000+0  00000+0 0  9993
2 56564   2.5249 288.3237 0003270 228.5646 138.0007  1.00271773  2489
BEIDOU-3 M25            
1 58654U 23207A   24008.96309732 -.00000030  00000+0  00000+0 0  9997
2 58654  54.9807  92.5330 0117579 178.8980 181.1538  1.82957674   260
BEIDOU-3 M26            
1 58655U 23207B   24005.84694770 -.00000037  00000+0  00000+0 0  9998
2 58655  54.6471  92.7627 0316732  68.9835  87.0455  1.85607573   193
CUTE-1 (CO-55)          
1 27844U 03031E   24008.93206825  .00000459  00000+0  22303-3 0  9991
2 27844  98.6786  18.2129 0008783 247.2096 112.8155 14.23027202 64994
CUBESAT XI-IV (CO-57)   
1 27848U 03031J   24008.94591134  .00000390  00000+0  19451-3 0  9990
2 27848  98.6820  18.5548 0008602 264.9293  95.0903 14.22503016 64758
CUBESAT XI-V            
1 28895U 05043F   24008.90597572  .00002030  00000+0  37310-3 0  9993
2 28895  98.1778 144.8799 0016781 140.8011 219.4412 14.66674427970954
CUTE-1.7+APD II (CO-65) 
1 32785U 08021C   24009.17928380  .00005090  00000+0  47659-3 0  9996
2 32785  97.7339 336.3433 0012832 132.5389 227.6917 14.94444225851633
AAUSAT-II               
1 32788U 08021F   24008.91058498  .00014048  00000+0  87029-3 0  9992
2 32788  97.5806 349.8131 0007862  26.5396 333.6234 15.09857737854180
SEEDS II (CO-66)        
1 32791U 08021J   24008.90422312  .00007424  00000+0  59963-3 0  9991
2 32791  97.6783 341.5945 0010017  89.1251 271.1120 15.00080565852548
SWISSCUBE               
1 35932U 09051B   24008.58734758  .00001318  00000+0  29480-3 0  9996
2 35932  98.4932 248.5607 0008511  91.9900 268.2273 14.58399889759144
BEESAT-1                
1 35933U 09051C   24008.63631800  .00001137  00000+0  25685-3 0  9999
2 35933  98.4859 249.7169 0006730 102.0268 258.1684 14.58222036759223
ITUPSAT1                
1 35935U 09051E   24008.19543243  .00001008  00000+0  23378-3 0  9999
2 35935  98.4959 249.1300 0008936 109.6340 250.5822 14.57224394758813
TISAT 1                 
1 36799U 10035E   24008.66512581  .00006612  00000+0  54729-3 0  9995
2 36799  98.1065 251.3909 0009766  17.7942 342.3620 14.99206791732989
M-CUBED & EXP-1 PRIME   
1 37855U 11061F   24008.80576926  .00049650  00000+0  10008-2 0  9998
2 37855 101.6917  94.3664 0085228 124.0772 236.8586 15.42485722668070
AEROCUBE 4.5A           
1 38767U 12048K   24008.62563905  .00007230  00000+0  46015-3 0  9996
2 38767  64.6629 108.2197 0103270  78.0117 283.2554 15.05166746236260
AEROCUBE 4.5B           
1 38768U 12048L   24009.14941834  .00014286  00000+0  69815-3 0  9998
2 38768  64.6630  41.8554 0082597  66.8058 294.1737 15.15467219237107
STRAND-1                
1 39090U 13009E   24008.52497200  .00000448  00000+0  16944-3 0  9999
2 39090  98.3796 201.2329 0009215  19.1310 341.0221 14.35838301569207
BRITE-AUSTRIA           
1 39091U 13009F   24009.10258329  .00000295  00000+0  11700-3 0  9997
2 39091  98.3832 201.0505 0010807  23.4073 336.7603 14.35647976569308
BEESAT-2                
1 39136U 13015G   24009.13278665  .00333236  00000+0  15984-2 0  9993
2 39136  64.8516   6.4837 0009686 291.1188  68.8934 15.81502840594157
NEE-01 PEGASO           
1 39151U 13018B   24008.98082221  .00003156  00000+0  38262-3 0  9996
2 39151  98.0225 124.9013 0015203 197.9800 162.0878 14.84255369578203
ESTCUBE 1               
1 39161U 13021C   24009.13445146  .00001929  00000+0  29142-3 0  9991
2 39161  97.8506  80.4473 0009742  34.3728 325.8110 14.75364651573526
POPACS 1                
1 39268U 13055D   24007.90000557  .00023163  00000+0  46139-3 0  9991
2 39268  80.9876 334.5627 0451469 246.5210 108.7949 14.80637824536585
POPACS 2                
1 39269U 13055E   24008.14291576  .00011268  00000+0  27049-3 0  9994
2 39269  81.0051  53.3626 0578722  91.9302 274.8234 14.50139008532209
POPACS 3                
1 39270U 13055F   24009.22462337  .00014631  00000+0  41642-3 0  9993
2 39270  81.0126  97.9021 0645037 216.9555 138.5523 14.32617854530722
ZACUBE-1 (TSHEPISOSAT)  
1 39417U 13066B   24008.81916522  .00005556  00000+0  61041-3 0  9993
2 39417  97.7139 328.8695 0052187 332.1953  27.6476 14.87048606547734
WNISAT-1                
1 39423U 13066H   24009.12809523  .00001128  00000+0  22517-3 0  9993
2 39423  97.6782 216.3813 0171811 151.1870 209.8951 14.54732197537370
TRITON-1                
1 39427U 13066M   24009.17553229  .00002981  00000+0  43809-3 0  9996
2 39427  97.8428 292.5123 0103858 236.4859 122.6394 14.72594271542843
DELFI-N3XT              
1 39428U 13066N   24008.74584041  .00005752  00000+0  78308-3 0  9996
2 39428  97.8394 291.6764 0104067 247.5037 111.5129 14.75394328542411
GOMX-1                  
1 39430U 13066Q   24009.20915598  .00002405  00000+0  41247-3 0  9990
2 39430  97.7551 253.1812 0143834  41.2275 319.9684 14.62993198539640
CUBEBUG-2 (LO-74)       
1 39440U 13066AA  24008.79179698  .00004098  00000+0  50717-3 0  9999
2 39440  97.7972 316.3427 0074344  77.8834 283.0696 14.81316771544576
NEE-02 KRYSAOR          
1 39441U 13066AB  24008.80893939  .00002324  00000+0  30759-3 0  9997
2 39441  97.8075 312.7533 0077834  96.7684 264.2392 14.78759036544227
FUNCUBE-1 (AO-73)       
1 39444U 13066AE  24008.85013450  .00006961  00000+0  72346-3 0  9996
2 39444  97.6996 331.6931 0049440 315.0008  44.7208 14.89299377546229
UWE-3                   
1 39446U 13066AG  24008.82052250  .00005094  00000+0  59634-3 0  9997
2 39446  97.7625 322.4439 0063981  27.2545 333.2003 14.84000920544907
BRITE-CA1 (TORONTO)     
1 40020U 14033L   24008.95824287  .00001657  00000+0  27859-3 0  9998
2 40020  97.8518 152.0599 0083089 243.2557 116.0129 14.68692291511457
DUCHIFAT-1              
1 40021U 14033M   24008.89185719  .00010168  00000+0  77363-3 0  9994
2 40021  98.0721 345.3158 0012566 284.9552  75.0280 15.02260887520020
NANOSATC-BR1            
1 40024U 14033Q   24008.85053241  .00009074  00000+0  74415-3 0  9996
2 40024  98.0559 334.9300 0008368 338.1634  21.9230 14.99459841519199
QB50P1                  
1 40025U 14033R   24008.85692310  .00006225  00000+0  55019-3 0  9997
2 40025  98.0218 324.9471 0010429 340.0110  20.0701 14.96670856518877
QB50P2                  
1 40032U 14033Y   24008.83593778  .00005538  00000+0  50282-3 0  9994
2 40032  97.9892 317.6081 0009909 339.1441  20.9374 14.95667903518686
PERSEUS-M2              
1 40037U 14033AD  24008.78772039  .00001981  00000+0  21403-3 0  9993
2 40037  97.9195 299.2356 0013899  10.5628 349.5879 14.89436609517945
PERSEUS-M1              
1 40039U 14033AF  24008.78548579  .00002170  00000+0  23544-3 0  9994
2 40039  97.9021 295.7286 0013675  10.1065 350.0424 14.89151577517807
